{
  "type": "FeatureCollection",
  "features": [
    {
      "type": "Feature",
      "properties": {
        "norad_id": 43603,
        "name": "BEIDOU-3 M11 (C25)",
        "group": "beidou",
        "lat": -41.05836152561306,
        "lon": 46.5242100323625,
        "alt_km": 21548.120703962613,
        "timestamp": "2025-12-07T03:52:32.761981+00:00",
        "meta_object_name": "BEIDOU-3 M11 (C25)",
        "meta_object_id": "2018-067B",
        "meta_epoch": "2025-12-05T17:43:23.000160",
        "meta_mean_motion": 1.86227161,
        "meta_eccentricity": 0.00055761,
        "meta_inclination": 54.1804,
        "meta_ra_of_asc_node": 187.565,
        "meta_arg_of_pericenter": 36.5607,
        "meta_mean_anomaly": 323.5589,
        "meta_ephemeris_type": 0,
        "meta_classification_type": "U",
        "meta_norad_cat_id": 43603,
        "meta_element_set_no": 999,
        "meta_rev_at_epoch": 4954,
        "meta_bstar": 0,
        "meta_mean_motion_dot": 8.4e-07,
        "meta_mean_motion_ddot": 0,
        "tle_line1": "1 43603U 18067B   25339.73846065  .00000084  00000+0  00000+0 0  9999",
        "tle_line2": "2 43603  54.1804 187.5650 0005576  36.5607 323.5589  1.86227161 49543"
      },
      "geometry": {
        "type": "Point",
        "coordinates": [
          46.5242100323625,
          -41.05836152561306
        ]
      }
    },
    {
      "type": "Feature",
      "properties": {
        "norad_id": 43622,
        "name": "BEIDOU-3 M13 (C32)",
        "group": "beidou",
        "lat": -55.86438518961625,
        "lon": -33.27102576244097,
        "alt_km": 21521.188074706166,
        "timestamp": "2025-12-07T03:52:32.761992+00:00",
        "meta_object_name": "BEIDOU-3 M13 (C32)",
        "meta_object_id": "2018-072A",
        "meta_epoch": "2025-12-03T13:07:53.541408",
        "meta_mean_motion": 1.86230692,
        "meta_eccentricity": 0.00056735,
        "meta_inclination": 56.4512,
        "meta_ra_of_asc_node": 69.1249,
        "meta_arg_of_pericenter": 298.6305,
        "meta_mean_anomaly": 61.3164,
        "meta_ephemeris_type": 0,
        "meta_classification_type": "U",
        "meta_norad_cat_id": 43622,
        "meta_element_set_no": 999,
        "meta_rev_at_epoch": 4901,
        "meta_bstar": 0,
        "meta_mean_motion_dot": -5e-07,
        "meta_mean_motion_ddot": 0,
        "tle_line1": "1 43622U 18072A   25337.54714747 -.00000050  00000+0  00000+0 0  9998",
        "tle_line2": "2 43622  56.4512  69.1249 0005673 298.6305  61.3164  1.86230692 49019"
      },
      "geometry": {
        "type": "Point",
        "coordinates": [
          -33.27102576244097,
          -55.86438518961625
        ]
      }
    },
    {
      "type": "Feature",
      "properties": {
        "norad_id": 43623,
        "name": "BEIDOU-3 M14 (C33)",
        "group": "beidou",
        "lat": -5.497386747827472,
        "lon": 65.35321516869642,
        "alt_km": 21520.986236257,
        "timestamp": "2025-12-07T03:52:32.762004+00:00",
        "meta_object_name": "BEIDOU-3 M14 (C33)",
        "meta_object_id": "2018-072B",
        "meta_epoch": "2025-12-02T08:07:43.843296",
        "meta_mean_motion": 1.86230716,
        "meta_eccentricity": 0.00030503,
        "meta_inclination": 56.4518,
        "meta_ra_of_asc_node": 69.1588,
        "meta_arg_of_pericenter": 335.8375,
        "meta_mean_anomaly": 24.1509,
        "meta_ephemeris_type": 0,
        "meta_classification_type": "U",
        "meta_norad_cat_id": 43623,
        "meta_element_set_no": 999,
        "meta_rev_at_epoch": 4898,
        "meta_bstar": 0,
        "meta_mean_motion_dot": -4.6e-07,
        "meta_mean_motion_ddot": 0,
        "tle_line1": "1 43623U 18072B   25336.33870189 -.00000046  00000+0  00000+0 0  9993",
        "tle_line2": "2 43623  56.4518  69.1588 0003050 335.8375  24.1509  1.86230716 48982"
      },
      "geometry": {
        "type": "Point",
        "coordinates": [
          65.35321516869642,
          -5.497386747827472
        ]
      }
    },
    {
      "type": "Feature",
      "properties": {
        "norad_id": 43647,
        "name": "BEIDOU-3 M16 (C35)",
        "group": "beidou",
        "lat": -48.60906840050938,
        "lon": -178.5937369454929,
        "alt_km": 21546.18813421589,
        "timestamp": "2025-12-07T03:52:32.762016+00:00",
        "meta_object_name": "BEIDOU-3 M16 (C35)",
        "meta_object_id": "2018-078A",
        "meta_epoch": "2025-12-04T15:28:02.326368",
        "meta_mean_motion": 1.8623209,
        "meta_eccentricity": 0.00070171,
        "meta_inclination": 54.2696,
        "meta_ra_of_asc_node": 306.8042,
        "meta_arg_of_pericenter": 18.5633,
        "meta_mean_anomaly": 341.4446,
        "meta_ephemeris_type": 0,
        "meta_classification_type": "U",
        "meta_norad_cat_id": 43647,
        "meta_element_set_no": 999,
        "meta_rev_at_epoch": 4853,
        "meta_bstar": 0,
        "meta_mean_motion_dot": -6.9e-07,
        "meta_mean_motion_ddot": 0,
        "tle_line1": "1 43647U 18078A   25338.64447137 -.00000069  00000+0  00000+0 0  9999",
        "tle_line2": "2 43647  54.2696 306.8042 0007017  18.5633 341.4446  1.86232090 48539"
      },
      "geometry": {
        "type": "Point",
        "coordinates": [
          -178.5937369454929,
          -48.60906840050938
        ]
      }
    },
    {
      "type": "Feature",
      "properties": {
        "norad_id": 43648,
        "name": "BEIDOU-3 M15 (C34)",
        "group": "beidou",
        "lat": 15.3238137623235,
        "lon": 115.32369656875863,
        "alt_km": 21534.40372015885,
        "timestamp": "2025-12-07T03:52:32.762027+00:00",
        "meta_object_name": "BEIDOU-3 M15 (C34)",
        "meta_object_id": "2018-078B",
        "meta_epoch": "2025-12-05T07:27:18.667008",
        "meta_mean_motion": 1.86231965,
        "meta_eccentricity": 0.00036856,
        "meta_inclination": 54.2646,
        "meta_ra_of_asc_node": 306.7819,
        "meta_arg_of_pericenter": 17.7509,
        "meta_mean_anomaly": 342.2442,
        "meta_ephemeris_type": 0,
        "meta_classification_type": "U",
        "meta_norad_cat_id": 43648,
        "meta_element_set_no": 999,
        "meta_rev_at_epoch": 4856,
        "meta_bstar": 0,
        "meta_mean_motion_dot": -6.9e-07,
        "meta_mean_motion_ddot": 0,
        "tle_line1": "1 43648U 18078B   25339.31063272 -.00000069  00000+0  00000+0 0  9999",
        "tle_line2": "2 43648  54.2646 306.7819 0003685  17.7509 342.2442  1.86231965 48564"
      },
      "geometry": {
        "type": "Point",
        "coordinates": [
          115.32369656875863,
          15.3238137623235
        ]
      }
    },
    {
      "type": "Feature",
      "properties": {
        "norad_id": 43683,
        "name": "BEIDOU-3 G1 (C59)",
        "group": "beidou",
        "lat": 0.36855678057327834,
        "lon": -85.5852016720217,
        "alt_km": 35788.07705040087,
        "timestamp": "2025-12-07T03:52:32.762039+00:00",
        "meta_object_name": "BEIDOU-3 G1 (C59)",
        "meta_object_id": "2018-085A",
        "meta_epoch": "2025-12-06T10:54:27.925632",
        "meta_mean_motion": 1.0027266,
        "meta_eccentricity": 0.0001888,
        "meta_inclination": 2.5912,
        "meta_ra_of_asc_node": 103.1384,
        "meta_arg_of_pericenter": 65.0418,
        "meta_mean_anomaly": 210.9904,
        "meta_ephemeris_type": 0,
        "meta_classification_type": "U",
        "meta_norad_cat_id": 43683,
        "meta_element_set_no": 999,
        "meta_rev_at_epoch": 2612,
        "meta_bstar": 0,
        "meta_mean_motion_dot": -2.71e-06,
        "meta_mean_motion_ddot": 0,
        "tle_line1": "1 43683U 18085A   25340.45448988 -.00000271  00000+0  00000+0 0  9999",
        "tle_line2": "2 43683   2.5912 103.1384 0001888  65.0418 210.9904  1.00272660 26124"
      },
      "geometry": {
        "type": "Point",
        "coordinates": [
          -85.5852016720217,
          0.36855678057327834
        ]
      }
    },
    {
      "type": "Feature",
      "properties": {
        "norad_id": 43706,
        "name": "BEIDOU-3 M17 (C36)",
        "group": "beidou",
        "lat": 41.40033464028897,
        "lon": -131.60418397300688,
        "alt_km": 21528.838202975436,
        "timestamp": "2025-12-07T03:52:32.762050+00:00",
        "meta_object_name": "BEIDOU-3 M17 (C36)",
        "meta_object_id": "2018-093A",
        "meta_epoch": "2025-12-03T14:10:37.280064",
        "meta_mean_motion": 1.86228161,
        "meta_eccentricity": 0.00063465,
        "meta_inclination": 54.1727,
        "meta_ra_of_asc_node": 188.9327,
        "meta_arg_of_pericenter": 306.3477,
        "meta_mean_anomaly": 234.3147,
        "meta_ephemeris_type": 0,
        "meta_classification_type": "U",
        "meta_norad_cat_id": 43706,
        "meta_element_set_no": 999,
        "meta_rev_at_epoch": 4789,
        "meta_bstar": 0,
        "meta_mean_motion_dot": 1.14e-06,
        "meta_mean_motion_ddot": 0,
        "tle_line1": "1 43706U 18093A   25337.59070926  .00000114  00000+0  00000+0 0  9993",
        "tle_line2": "2 43706  54.1727 188.9327 0006346 306.3477 234.3147  1.86228161 47892"
      },
      "geometry": {
        "type": "Point",
        "coordinates": [
          -131.60418397300688,
          41.40033464028897
        ]
      }
    }
  ]
}